[{"OBJECT_NAME":"STARLINK-31314","OBJECT_ID":"2024-031C","EPOCH":"2026-03-09T20:45:53.244576","MEAN_MOTION":15.30195953,"ECCENTRICITY":5.118e-5,"INCLINATION":53.1592,"RA_OF_ASC_NODE":295.6274,"ARG_OF_PERICENTER":106.017,"MEAN_ANOMALY":254.0888,"EPHEMERIS_TYPE":0,"CLASSIFICATION_TYPE":"U","NORAD_CAT_ID":58967,"ELEMENT_SET_NO":999,"REV_AT_EPOCH":11656,"BSTAR":-8.8718506e-5,"MEAN_MOTION_DOT":-2.985e-5,"MEAN_MOTION_DDOT":0},{"OBJECT_NAME":"CZ-2D R\/B","OBJECT_ID":"2025-227B","EPOCH":"2026-03-09T22:11:26.043072","MEAN_MOTION":15.30393637,"ECCENTRICITY":0.00198129,"INCLINATION":80.1514,"RA_OF_ASC_NODE":267.3771,"ARG_OF_PERICENTER":270.3655,"MEAN_ANOMALY":89.5307,"EPHEMERIS_TYPE":0,"CLASSIFICATION_TYPE":"U","NORAD_CAT_ID":65946,"ELEMENT_SET_NO":999,"REV_AT_EPOCH":2254,"BSTAR":0.00032251975,"MEAN_MOTION_DOT":9.557e-5,"MEAN_MOTION_DDOT":0}]
